[{"OBJECT_NAME":"YAOGAN-33 02","OBJECT_ID":"2022-106A","EPOCH":"2026-03-10T00:11:39.197184","MEAN_MOTION":14.58686207,"ECCENTRICITY":0.00031698,"INCLINATION":98.185,"RA_OF_ASC_NODE":78.3458,"ARG_OF_PERICENTER":101.2556,"MEAN_ANOMALY":258.9,"EPHEMERIS_TYPE":0,"CLASSIFICATION_TYPE":"U","NORAD_CAT_ID":53698,"ELEMENT_SET_NO":999,"REV_AT_EPOCH":18726,"BSTAR":6.2152918e-5,"MEAN_MOTION_DOT":2.44e-6,"MEAN_MOTION_DDOT":0},{"OBJECT_NAME":"FENGYUN 1C DEB","OBJECT_ID":"1999-025AKD","EPOCH":"2026-03-09T22:29:24.185472","MEAN_MOTION":14.55951591,"ECCENTRICITY":0.01160055,"INCLINATION":98.89,"RA_OF_ASC_NODE":59.9529,"ARG_OF_PERICENTER":11.2931,"MEAN_ANOMALY":349.0827,"EPHEMERIS_TYPE":0,"CLASSIFICATION_TYPE":"U","NORAD_CAT_ID":30539,"ELEMENT_SET_NO":999,"REV_AT_EPOCH":612,"BSTAR":0.00083831096,"MEAN_MOTION_DOT":3.979e-5,"MEAN_MOTION_DDOT":0}]
